[{"OBJECT_NAME":"YAOGAN-21","OBJECT_ID":"2014-053A","EPOCH":"2026-03-09T23:50:42.268992","MEAN_MOTION":15.2493211,"ECCENTRICITY":0.00100966,"INCLINATION":97.1617,"RA_OF_ASC_NODE":113.5215,"ARG_OF_PERICENTER":86.0219,"MEAN_ANOMALY":274.2173,"EPHEMERIS_TYPE":0,"CLASSIFICATION_TYPE":"U","NORAD_CAT_ID":40143,"ELEMENT_SET_NO":999,"REV_AT_EPOCH":63983,"BSTAR":0.00033036554,"MEAN_MOTION_DOT":8.172e-5,"MEAN_MOTION_DDOT":0},{"OBJECT_NAME":"STARLINK-31444","OBJECT_ID":"2024-049F","EPOCH":"2026-03-09T00:40:58.803168","MEAN_MOTION":15.27576671,"ECCENTRICITY":0.00011949,"INCLINATION":43.0029,"RA_OF_ASC_NODE":77.7673,"ARG_OF_PERICENTER":254.9284,"MEAN_ANOMALY":105.1436,"EPHEMERIS_TYPE":0,"CLASSIFICATION_TYPE":"U","NORAD_CAT_ID":59236,"ELEMENT_SET_NO":999,"REV_AT_EPOCH":11307,"BSTAR":-9.724308e-6,"MEAN_MOTION_DOT":-5.3e-6,"MEAN_MOTION_DDOT":0}]
